NORAD_CAT_ID,OBJECT_NAME,OBJECT_TYPE,EPOCH,MEAN_MOTION,ECCENTRICITY,INCLINATION,RA_OF_ASC_NODE,ARG_OF_PERICENTER,MEAN_ANOMALY,BSTAR,MEAN_MOTION_DOT,MEAN_MOTION_DDOT,TLE_LINE0,TLE_LINE1,TLE_LINE2,SEMIMAJOR_AXIS,PERIOD,APOGEE,PERIGEE,DECAYED
52296.0,STARLINK-3766,PAYLOAD,2023-09-13 04:27:58,15.08844374,0.0001346,53.2171,217.5523,87.9285,272.1861,5.661e-05,6.13e-06,0.0,0 STARLINK-3766,1 52296U 22041AM  23256.18609856  .00000613  00000-0  56610-4 0  9996,2 52296  53.2171 217.5523 0001346  87.9285 272.1861 15.08844374 77356,6917.867,95.437,540.663,538.801,0.0
52296.0,STARLINK-3766,PAYLOAD,2023-09-13 20:21:50,15.08836921,0.0001184,53.217,214.5798,88.8357,271.2771,-1.44e-05,-5.17e-06,0.0,0 STARLINK-3766,1 52296U 22041AM  23256.84850611 -.00000517  00000-0 -14400-4 0  9992,2 52296  53.2170 214.5798 0001184  88.8357 271.2771 15.08836921 77456,6917.89,95.438,540.574,538.936,0.0
52296.0,STARLINK-3766,PAYLOAD,2023-09-14 02:43:23,15.08838101,0.0001109,53.2166,213.3908,81.6928,278.419,5.2055e-06,-2.05e-06,0.0,0 STARLINK-3766,1 52296U 22041AM  23257.11346521 -.00000205  00000-0  52055-5 0  9995,2 52296  53.2166 213.3908 0001109  81.6928 278.4190 15.08838101 78719,6917.886,95.438,540.518,538.984,0.0
52296.0,STARLINK-3766,PAYLOAD,2023-09-14 07:29:32,15.08842418,0.0001253,53.2172,212.4973,88.3831,271.7305,1.4648e-05,-5.5e-07,0.0,0 STARLINK-3766,1 52296U 22041AM  23257.31218202 -.00000055  00000-0  14648-4 0  9999,2 52296  53.2172 212.4973 0001253  88.3831 271.7305 15.08842418 77523,6917.873,95.437,540.605,538.871,0.0
52296.0,STARLINK-3766,PAYLOAD,2023-09-15 05:44:56,15.08841102,0.0001376,53.2179,208.3333,86.6202,273.4948,-1.2978e-05,-4.94e-06,0.0,0 STARLINK-3766,1 52296U 22041AM  23258.23954785 -.00000494  00000-0 -12978-4 0  9996,2 52296  53.2179 208.3333 0001376  86.6202 273.4948 15.08841102 78884,6917.877,95.437,540.694,538.79,0.0
52296.0,STARLINK-3766,PAYLOAD,2023-09-16 05:35:43,15.0883679,0.0001319,53.2186,203.8727,101.732,258.382,0.00016547,2.346e-05,0.0,0 STARLINK-3766,1 52296U 22041AM  23259.23314771  .00002346  00000-0  16547-3 0  9993,2 52296  53.2186 203.8727 0001319 101.7320 258.3820 15.08836790 77816,6917.89,95.438,540.668,538.843,0.0
52296.0,STARLINK-3766,PAYLOAD,2023-09-17 02:15:45,15.08838048,0.0001479,53.2178,200.0096,83.9495,276.1666,3.9071e-05,3.34e-06,0.0,0 STARLINK-3766,1 52296U 22041AM  23260.09427367  .00000334  00000-0  39071-4 0  9998,2 52296  53.2178 200.0096 0001479  83.9495 276.1666 15.08838048 79160,6917.886,95.438,540.775,538.728,0.0
52296.0,STARLINK-3766,PAYLOAD,2023-09-17 05:26:31,15.08842012,0.000146,53.218,199.4143,81.6543,278.4614,7.5285e-05,9.1e-06,0.0,0 STARLINK-3766,1 52296U 22041AM  23260.22675062  .00000910  00000-0  75285-4 0  9997,2 52296  53.2180 199.4143 0001460  81.6543 278.4614 15.08842012 77966,6917.874,95.437,540.749,538.729,0.0
52296.0,STARLINK-3766,PAYLOAD,2023-09-18 02:06:31,15.08854332,0.000125,53.2168,195.5475,98.8689,261.2444,9.0064e-05,1.146e-05,0.0,0 STARLINK-3766,1 52296U 22041AM  23261.08785920  .00001146  00000-0  90064-4 0  9991,2 52296  53.2168 195.5475 0001250  98.8689 261.2444 15.08854332 79315,6917.837,95.437,540.566,538.837,0.0
52296.0,STARLINK-3766,PAYLOAD,2023-09-18 05:17:17,15.08855823,0.0001254,53.2168,194.9522,96.3969,263.7166,0.00010382,1.365e-05,0.0,0 STARLINK-3766,1 52296U 22041AM  23261.22033694  .00001365  00000-0  10382-3 0  9998,2 52296  53.2168 194.9522 0001254  96.3969 263.7166 15.08855823 78110,6917.832,95.437,540.565,538.83,0.0
52296.0,STARLINK-3766,PAYLOAD,2023-09-18 19:35:46,15.08844666,0.0001513,53.2183,192.2767,89.8732,270.2434,1.6173e-05,-3.1e-07,0.0,0 STARLINK-3766,1 52296U 22041AM  23261.81650738 -.00000031  00000-0  16173-4 0  9992,2 52296  53.2183 192.2767 0001513  89.8732 270.2434 15.08844666 78206,6917.866,95.437,540.778,538.684,0.0
52296.0,STARLINK-3766,PAYLOAD,2023-09-19 01:57:18,15.08848145,0.0001359,53.2173,191.0861,93.7841,266.3306,5.076e-05,5.2e-06,0.0,0 STARLINK-3766,1 52296U 22041AM  23262.08146308  .00000520  00000-0  50760-4 0  9997,2 52296  53.2173 191.0861 0001359  93.7841 266.3306 15.08848145 79469,6917.855,95.437,540.661,538.78,0.0
52296.0,STARLINK-3766,PAYLOAD,2023-09-20 01:48:05,15.08819401,0.000166,53.2177,186.6234,105.2207,254.8969,0.00034412,5.19e-05,0.0,0 STARLINK-3766,1 52296U 22041AM  23263.07506608  .00005190  00000-0  34412-3 0  9993,2 52296  53.2177 186.6234 0001660 105.2207 254.8969 15.08819401 79614,6917.943,95.439,540.957,538.66,0.0
52296.0,STARLINK-3766,PAYLOAD,2023-09-20 04:58:51,15.08851367,0.0001519,53.2184,186.03,104.1488,255.9673,-1.758e-05,-5.68e-06,0.0,0 STARLINK-3766,1 52296U 22041AM  23263.20753791 -.00000568  00000-0 -17580-4 0  9999,2 52296  53.2184 186.0300 0001519 104.1488 255.9673 15.08851367 79635,6917.846,95.437,540.761,538.66,0.0
52296.0,STARLINK-3766,PAYLOAD,2023-09-20 19:17:21,15.08825306,0.0001546,53.2176,183.3533,92.8546,267.2623,-0.00012939,-2.346e-05,0.0,0 STARLINK-3766,1 52296U 22041AM  23263.80372370 -.00002346  00000-0 -12939-3 0  9993,2 52296  53.2176 183.3533 0001546  92.8546 267.2623 15.08825306 79727,6917.925,95.438,540.86,538.721,0.0
52296.0,STARLINK-3766,PAYLOAD,2023-09-20 22:28:08,15.08823602,0.000128,53.2178,182.7589,103.8897,256.2238,-0.00013997,-2.514e-05,0.0,0 STARLINK-3766,1 52296U 22041AM  23263.93620548 -.00002514  00000-0 -13997-3 0  9992,2 52296  53.2178 182.7589 0001280 103.8897 256.2238 15.08823602 78524,6917.931,95.439,540.681,538.91,0.0
52296.0,STARLINK-3766,PAYLOAD,2023-09-21 04:49:40,15.08824907,0.0001188,53.2183,181.5701,90.9667,269.1461,-0.00012251,-2.236e-05,0.0,0 STARLINK-3766,1 52296U 22041AM  23264.20116705 -.00002236  00000-0 -12251-3 0  9991,2 52296  53.2183 181.5701 0001188  90.9667 269.1461 15.08824907 78565,6917.927,95.439,540.613,538.97,0.0
52296.0,STARLINK-3766,PAYLOAD,2023-09-21 22:18:54,15.08843305,9.62e-05,53.2177,178.3005,104.3686,255.7413,1.8194e-05,2e-08,0.0,0 STARLINK-3766,1 52296U 22041AM  23264.92979473  .00000002  00000-0  18194-4 0  9999,2 52296  53.2177 178.3005 0000962 104.3686 255.7413 15.08843305 78672,6917.87,95.437,540.401,539.07,0.0
52296.0,STARLINK-3766,PAYLOAD,2023-09-21 23:54:17,15.08840542,0.00012,53.2177,178.0043,108.7673,251.345,2.7774e-05,1.54e-06,0.0,0 STARLINK-3766,1 52296U 22041AM  23264.99603475  .00000154  00000-0  27774-4 0  9994,2 52296  53.2177 178.0043 0001200 108.7673 251.3450 15.08840542 79901,6917.879,95.438,540.574,538.914,0.0
52296.0,STARLINK-3766,PAYLOAD,2023-09-22 04:40:26,15.08851046,0.0001164,53.2186,177.1104,113.261,246.8504,0.00013217,1.817e-05,0.0,0 STARLINK-3766,1 52296U 22041AM  23265.19474614  .00001817  00000-0  13217-3 0  9991,2 52296  53.2186 177.1104 0001164 113.2610 246.8504 15.08851046 79933,6917.847,95.437,540.517,538.906,0.0
52296.0,STARLINK-3766,PAYLOAD,2023-09-22 17:23:32,15.08833226,0.0001642,53.2182,174.7325,80.2914,279.8263,0.00026835,3.985e-05,0.0,0 STARLINK-3766,1 52296U 22041AM  23265.72467849  .00003985  00000-0  26835-3 0  9990,2 52296  53.2182 174.7325 0001642  80.2914 279.8263 15.08833226 80017,6917.901,95.438,540.902,538.63,0.0
52296.0,STARLINK-3766,PAYLOAD,2023-09-22 22:09:41,15.08835383,0.0001437,53.2182,173.8402,91.8106,268.305,0.00020966,3.05e-05,0.0,0 STARLINK-3766,1 52296U 22041AM  23265.92339808  .00003050  00000-0  20966-3 0  9997,2 52296  53.2182 173.8402 0001437  91.8106 268.3050 15.08835383 78825,6917.895,95.438,540.754,538.765,0.0
52296.0,STARLINK-3766,PAYLOAD,2023-09-23 02:55:50,15.08841634,9.24e-05,53.2185,172.9488,96.9269,263.1829,0.00024643,3.637e-05,0.0,0 STARLINK-3766,1 52296U 22041AM  23266.12211430  .00003637  00000-0  24643-3 0  9997,2 52296  53.2185 172.9488 0000924  96.9269 263.1829 15.08841634 78854,6917.875,95.437,540.38,539.101,0.0
52296.0,STARLINK-3766,PAYLOAD,2023-09-24 02:46:37,15.08851397,0.0001123,53.2184,168.4879,77.9629,282.1489,-1.4803e-05,-5.23e-06,0.0,0 STARLINK-3766,1 52296U 22041AM  23267.11571504 -.00000523  00000-0 -14803-4 0  9999,2 52296  53.2184 168.4879 0001123  77.9629 282.1489 15.08851397 79006,6917.846,95.437,540.487,538.934,0.0
52296.0,STARLINK-3766,PAYLOAD,2023-09-24 21:51:15,15.08841867,9.51e-05,53.2174,164.918,97.5013,262.6087,-4.8774e-05,-1.064e-05,0.0,0 STARLINK-3766,1 52296U 22041AM  23267.91059989 -.00001064  00000-0 -48774-4 0  9990,2 52296  53.2174 164.9180 0000951  97.5013 262.6087 15.08841867 79125,6917.875,95.437,540.398,539.082,0.0
52296.0,STARLINK-3766,PAYLOAD,2023-09-25 02:37:24,15.08846441,0.0001119,53.2173,164.0265,78.5393,281.5725,5.5289e-06,-2e-06,0.0,0 STARLINK-3766,1 52296U 22041AM  23268.10931635 -.00000200  00000-0  55289-5 0  9999,2 52296  53.2173 164.0265 0001119  78.5393 281.5725 15.08846441 80377,6917.861,95.437,540.5,538.952,0.0
52296.0,STARLINK-3766,PAYLOAD,2023-09-25 10:34:19,15.08851424,9.31e-05,53.2166,162.5401,103.8566,256.253,7.0391e-05,8.33e-06,0.0,0 STARLINK-3766,1 52296U 22041AM  23268.44050891  .00000833  00000-0  70391-4 0  9993,2 52296  53.2166 162.5401 0000931 103.8566 256.2530 15.08851424 79209,6917.845,95.437,540.355,539.066,0.0
52296.0,STARLINK-3766,PAYLOAD,2023-09-25 21:42:01,15.08856769,0.0001101,53.216,160.4601,68.8803,291.2307,0.00014164,1.968e-05,0.0,0 STARLINK-3766,1 52296U 22041AM  23268.90418440  .00001968  00000-0  14164-3 0  9997,2 52296  53.2160 160.4601 0001101  68.8803 291.2307 15.08856769 79271,6917.829,95.436,540.456,538.932,0.0
52296.0,STARLINK-3766,PAYLOAD,2023-09-25 23:17:24,15.08861763,0.0001101,53.2164,160.1648,88.2359,271.876,0.00013079,1.796e-05,0.0,0 STARLINK-3766,1 52296U 22041AM  23268.97041978  .00001796  00000-0  13079-3 0  9995,2 52296  53.2164 160.1648 0001101  88.2359 271.8760 15.08861763 80500,6917.814,95.436,540.441,538.917,0.0
52296.0,STARLINK-3766,PAYLOAD,2023-09-26 21:32:49,15.0883475,0.0001329,53.2163,155.9993,91.7285,268.386,-0.00011245,-2.077e-05,0.0,0 STARLINK-3766,1 52296U 22041AM  23269.89780090 -.00002077  00000-0 -11245-3 0  9990,2 52296  53.2163 155.9993 0001329  91.7285 268.3860 15.08834750 79420,6917.896,95.438,540.681,538.842,0.0
